{
  "type": "FeatureCollection",
  "features": [
    {
      "type": "Feature",
      "properties": {
        "norad_id": 66898,
        "name": "STARLINK-36065",
        "group": "last-30-days",
        "lat": 46.50541313036968,
        "lon": 100.76897280295796,
        "alt_km": 321.4460863465192,
        "timestamp": "2025-12-17T17:50:17.974892+00:00",
        "meta_object_name": "STARLINK-36065",
        "meta_object_id": "2025-283W",
        "meta_epoch": "2025-12-17T06:00:00.999648",
        "meta_mean_motion": 15.8239653,
        "meta_eccentricity": 0.00010242,
        "meta_inclination": 53.1546,
        "meta_ra_of_asc_node": 51.0253,
        "meta_arg_of_pericenter": 78.208,
        "meta_mean_anomaly": 56.8491,
        "meta_ephemeris_type": 0,
        "meta_classification_type": "U",
        "meta_norad_cat_id": 66898,
        "meta_element_set_no": 999,
        "meta_rev_at_epoch": 315,
        "meta_bstar": -0.0081273671,
        "meta_mean_motion_dot": -0.01517918,
        "meta_mean_motion_ddot": 0,
        "tle_line1": "1 66898U 25283W   25351.25001157 -.01517918  00000+0 -81274-2 0  9991",
        "tle_line2": "2 66898  53.1546  51.0253 0001024  78.2080  56.8491 15.82396530  3155"
      },
      "geometry": {
        "type": "Point",
        "coordinates": [
          100.76897280295796,
          46.50541313036968
        ]
      }
    },
    {
      "type": "Feature",
      "properties": {
        "norad_id": 66899,
        "name": "STARLINK-36064",
        "group": "last-30-days",
        "lat": 47.68324120447543,
        "lon": 103.99442790451585,
        "alt_km": 321.25079493010435,
        "timestamp": "2025-12-17T17:50:17.974901+00:00",
        "meta_object_name": "STARLINK-36064",
        "meta_object_id": "2025-283X",
        "meta_epoch": "2025-12-17T06:00:00.999648",
        "meta_mean_motion": 15.82353552,
        "meta_eccentricity": 0.00012398,
        "meta_inclination": 53.1545,
        "meta_ra_of_asc_node": 51.0201,
        "meta_arg_of_pericenter": 77.8337,
        "meta_mean_anomaly": 59.7945,
        "meta_ephemeris_type": 0,
        "meta_classification_type": "U",
        "meta_norad_cat_id": 66899,
        "meta_element_set_no": 999,
        "meta_rev_at_epoch": 309,
        "meta_bstar": -0.0081663398,
        "meta_mean_motion_dot": -0.01521745,
        "meta_mean_motion_ddot": 0,
        "tle_line1": "1 66899U 25283X   25351.25001157 -.01521745  00000+0 -81663-2 0  9997",
        "tle_line2": "2 66899  53.1545  51.0201 0001239  77.8337  59.7945 15.82353552  3092"
      },
      "geometry": {
        "type": "Point",
        "coordinates": [
          103.99442790451585,
          47.68324120447543
        ]
      }
    },
    {
      "type": "Feature",
      "properties": {
        "norad_id": 66900,
        "name": "STARLINK-36074",
        "group": "last-30-days",
        "lat": 48.79912317443396,
        "lon": 107.47184259972524,
        "alt_km": 321.2639694514646,
        "timestamp": "2025-12-17T17:50:17.974911+00:00",
        "meta_object_name": "STARLINK-36074",
        "meta_object_id": "2025-283Y",
        "meta_epoch": "2025-12-17T06:00:00.999648",
        "meta_mean_motion": 15.82307337,
        "meta_eccentricity": 0.00012161,
        "meta_inclination": 53.1545,
        "meta_ra_of_asc_node": 51.0145,
        "meta_arg_of_pericenter": 80.5077,
        "meta_mean_anomaly": 59.7817,
        "meta_ephemeris_type": 0,
        "meta_classification_type": "U",
        "meta_norad_cat_id": 66900,
        "meta_element_set_no": 999,
        "meta_rev_at_epoch": 315,
        "meta_bstar": -0.0082381376,
        "meta_mean_motion_dot": -0.01530534,
        "meta_mean_motion_ddot": 0,
        "tle_line1": "1 66900U 25283Y   25351.25001157 -.01530534  00000+0 -82381-2 0  9994",
        "tle_line2": "2 66900  53.1545  51.0145 0001216  80.5077  59.7817 15.82307337  3154"
      },
      "geometry": {
        "type": "Point",
        "coordinates": [
          107.47184259972524,
          48.79912317443396
        ]
      }
    },
    {
      "type": "Feature",
      "properties": {
        "norad_id": 66901,
        "name": "STARLINK-36043",
        "group": "last-30-days",
        "lat": 49.72823986080318,
        "lon": 110.79929332719587,
        "alt_km": 321.2549740866489,
        "timestamp": "2025-12-17T17:50:17.974921+00:00",
        "meta_object_name": "STARLINK-36043",
        "meta_object_id": "2025-283Z",
        "meta_epoch": "2025-12-17T06:00:00.999648",
        "meta_mean_motion": 15.82282396,
        "meta_eccentricity": 0.00011538,
        "meta_inclination": 53.1548,
        "meta_ra_of_asc_node": 51.0095,
        "meta_arg_of_pericenter": 79.3635,
        "meta_mean_anomaly": 63.3366,
        "meta_ephemeris_type": 0,
        "meta_classification_type": "U",
        "meta_norad_cat_id": 66901,
        "meta_element_set_no": 999,
        "meta_rev_at_epoch": 315,
        "meta_bstar": -0.0082842623,
        "meta_mean_motion_dot": -0.01536417,
        "meta_mean_motion_ddot": 0,
        "tle_line1": "1 66901U 25283Z   25351.25001157 -.01536417  00000+0 -82843-2 0  9994",
        "tle_line2": "2 66901  53.1548  51.0095 0001153  79.3635  63.3366 15.82282396  3155"
      },
      "geometry": {
        "type": "Point",
        "coordinates": [
          110.79929332719587,
          49.72823986080318
        ]
      }
    },
    {
      "type": "Feature",
      "properties": {
        "norad_id": 66902,
        "name": "STARLINK-35983",
        "group": "last-30-days",
        "lat": 50.65772228425618,
        "lon": 114.70634854120038,
        "alt_km": 321.37029438767877,
        "timestamp": "2025-12-17T17:50:17.974931+00:00",
        "meta_object_name": "STARLINK-35983",
        "meta_object_id": "2025-283AA",
        "meta_epoch": "2025-12-17T06:00:00.999648",
        "meta_mean_motion": 15.82232508,
        "meta_eccentricity": 0.0001065,
        "meta_inclination": 53.1546,
        "meta_ra_of_asc_node": 51.004,
        "meta_arg_of_pericenter": 74.2322,
        "meta_mean_anomaly": 71.2401,
        "meta_ephemeris_type": 0,
        "meta_classification_type": "U",
        "meta_norad_cat_id": 66902,
        "meta_element_set_no": 999,
        "meta_rev_at_epoch": 315,
        "meta_bstar": -0.00840727,
        "meta_mean_motion_dot": -0.01553123,
        "meta_mean_motion_ddot": 0,
        "tle_line1": "1 66902U 25283AA  25351.25001157 -.01553123  00000+0 -84073-2 0  9995",
        "tle_line2": "2 66902  53.1546  51.0040 0001065  74.2322  71.2401 15.82232508  3151"
      },
      "geometry": {
        "type": "Point",
        "coordinates": [
          114.70634854120038,
          50.65772228425618
        ]
      }
    },
    {
      "type": "Feature",
      "properties": {
        "norad_id": 66903,
        "name": "STARLINK-36077",
        "group": "last-30-days",
        "lat": 51.35694263880475,
        "lon": 118.22639491578529,
        "alt_km": 321.24635458678404,
        "timestamp": "2025-12-17T17:50:17.974941+00:00",
        "meta_object_name": "STARLINK-36077",
        "meta_object_id": "2025-283AB",
        "meta_epoch": "2025-12-17T06:00:00.999648",
        "meta_mean_motion": 15.82204185,
        "meta_eccentricity": 0.0001226,
        "meta_inclination": 53.155,
        "meta_ra_of_asc_node": 50.9991,
        "meta_arg_of_pericenter": 81.1883,
        "meta_mean_anomaly": 66.6568,
        "meta_ephemeris_type": 0,
        "meta_classification_type": "U",
        "meta_norad_cat_id": 66903,
        "meta_element_set_no": 999,
        "meta_rev_at_epoch": 315,
        "meta_bstar": -0.0084186497,
        "meta_mean_motion_dot": -0.01553259,
        "meta_mean_motion_ddot": 0,
        "tle_line1": "1 66903U 25283AB  25351.25001157 -.01553259  00000+0 -84186-2 0  9991",
        "tle_line2": "2 66903  53.1550  50.9991 0001226  81.1883  66.6568 15.82204185  3150"
      },
      "geometry": {
        "type": "Point",
        "coordinates": [
          118.22639491578529,
          51.35694263880475
        ]
      }
    },
    {
      "type": "Feature",
      "properties": {
        "norad_id": 66904,
        "name": "STARLINK-36059",
        "group": "last-30-days",
        "lat": 51.96432817355509,
        "lon": 121.96974657351763,
        "alt_km": 321.35155327174107,
        "timestamp": "2025-12-17T17:50:17.974953+00:00",
        "meta_object_name": "STARLINK-36059",
        "meta_object_id": "2025-283AC",
        "meta_epoch": "2025-12-17T06:00:00.999648",
        "meta_mean_motion": 15.82173293,
        "meta_eccentricity": 0.00011173,
        "meta_inclination": 53.1546,
        "meta_ra_of_asc_node": 50.9937,
        "meta_arg_of_pericenter": 80.2409,
        "meta_mean_anomaly": 70.0672,
        "meta_ephemeris_type": 0,
        "meta_classification_type": "U",
        "meta_norad_cat_id": 66904,
        "meta_element_set_no": 999,
        "meta_rev_at_epoch": 315,
        "meta_bstar": -0.0084868754,
        "meta_mean_motion_dot": -0.01562196,
        "meta_mean_motion_ddot": 0,
        "tle_line1": "1 66904U 25283AC  25351.25001157 -.01562196  00000+0 -84869-2 0  9990",
        "tle_line2": "2 66904  53.1546  50.9937 0001117  80.2409  70.0672 15.82173293  3159"
      },
      "geometry": {
        "type": "Point",
        "coordinates": [
          121.96974657351763,
          51.96432817355509
        ]
      }
    }
  ]
}